[
    {
        "Altitude(m)": 605470.7557075319,
        "Argument of Periapsis(deg)": 0.0,
        "Eccentricity": 0.0,
        "Inclination(deg)": 60.0,
        "Latitude(deg)": 27.988094807776125,
        "Longitude(deg)": -12.73711165195301,
        "Mean Anomaly(deg)": -212.7273,
        "RAAN(deg)": 285.0,
        "Satellite Name": "Test1 1263",
        "Satellite Number": 1263,
        "Semi-Major Axis(m)": 6980739.136638005,
        "Time(s)": 0
    },
    {
        "Altitude(m)": 605395.7942226382,
        "Argument of Periapsis(deg)": 0.00010418945913296404,
        "Eccentricity": 0.0,
        "Inclination(deg)": 60.0,
        "Latitude(deg)": 27.473786183821318,
        "Longitude(deg)": -12.383922960565254,
        "Mean Anomaly(deg)": -212.1071938545382,
        "RAAN(deg)": 284.9995799508602,
        "Satellite Name": "Test1 1263",
        "Satellite Number": 1263,
        "Semi-Major Axis(m)": 6980739.136638005,
        "Time(s)": 10
    }
]